[{"OBJECT_NAME":"STARLINK-1185","OBJECT_ID":"2020-006AV","EPOCH":"2026-03-09T17:07:52.513536","MEAN_MOTION":15.30190318,"ECCENTRICITY":0.00013297,"INCLINATION":53.1595,"RA_OF_ASC_NODE":242.2977,"ARG_OF_PERICENTER":58.8822,"MEAN_ANOMALY":301.2309,"EPHEMERIS_TYPE":0,"CLASSIFICATION_TYPE":"U","NORAD_CAT_ID":45087,"ELEMENT_SET_NO":999,"REV_AT_EPOCH":33709,"BSTAR":2.1175504e-5,"MEAN_MOTION_DOT":2.68e-6,"MEAN_MOTION_DDOT":0},{"OBJECT_NAME":"FREGAT DEB","OBJECT_ID":"2011-037AE","EPOCH":"2026-03-09T11:56:15.633888","MEAN_MOTION":13.06115161,"ECCENTRICITY":0.1161067,"INCLINATION":51.4064,"RA_OF_ASC_NODE":123.1143,"ARG_OF_PERICENTER":278.9184,"MEAN_ANOMALY":68.2271,"EPHEMERIS_TYPE":0,"CLASSIFICATION_TYPE":"U","NORAD_CAT_ID":45638,"ELEMENT_SET_NO":999,"REV_AT_EPOCH":25229,"BSTAR":0.0046705437,"MEAN_MOTION_DOT":0.00073585,"MEAN_MOTION_DDOT":0}]
